{"type": "FeatureCollection", "features": [ {"type": "Feature", "properties": {"norad_id": 41774, "name": "SKYSAT-C3", "group": "resource", "lat": -74.46014858888087, "lon": 45.52075922816244, "alt_km": 441.7850120539033, "timestamp": "2025-12-11T18:59:45.723729+00:00", "meta": {"OBJECT_NAME": "SKYSAT-C3", "OBJECT_ID": "2016-058E", "EPOCH": "2025-12-11T02:13:07.880448", "MEAN_MOTION": 15.44300229, "ECCENTRICITY": 0.00016163, "INCLINATION": 96.9302, "RA_OF_ASC_NODE": 18.9149, "ARG_OF_PERICENTER": 106.2091, "MEAN_ANOMALY": 253.9336, "EPHEMERIS_TYPE": 0, "CLASSIFICATION_TYPE": "U", "NORAD_CAT_ID": 41774, "ELEMENT_SET_NO": 999, "REV_AT_EPOCH": 51700, "BSTAR": 0.00056526339, "MEAN_MOTION_DOT": 0.00025995, "MEAN_MOTION_DDOT": 0}, "tle": {"line1": "1 41774U 16058E   25345.09245232  .00025995  00000+0  56526-3 0  9995", "line2": "2 41774  96.9302  18.9149 0001616 106.2091 253.9336 15.44300229517003"}}, "geometry": {"type": "Point", "coordinates": [45.52075922816244, -74.46014858888087]}}, {"type": "Feature", "properties": {"norad_id": 41785, "name": "ALSAT 1B", "group": "resource", "lat": 28.31968911719037, "lon": -6.60426784073681, "alt_km": 651.5205357755149, "timestamp": "2025-12-11T18:59:45.723740+00:00", "meta": {"OBJECT_NAME": "ALSAT 1B", "OBJECT_ID": "2016-059C", "EPOCH": "2025-12-11T07:26:49.471584", "MEAN_MOTION": 14.72072461, "ECCENTRICITY": 0.001067, "INCLINATION": 97.7816, "RA_OF_ASC_NODE": 357.1613, "ARG_OF_PERICENTER": 107.2293, "MEAN_ANOMALY": 253.0084, "EPHEMERIS_TYPE": 0, "CLASSIFICATION_TYPE": "U", "NORAD_CAT_ID": 41785, "ELEMENT_SET_NO": 999, "REV_AT_EPOCH": 49293, "BSTAR": 0.00010171515, "MEAN_MOTION_DOT": 5.93e-06, "MEAN_MOTION_DDOT": 0}, "tle": {"line1": "1 41785U 16059C   25345.31029481  .00000593  00000+0  10172-3 0  9993", "line2": "2 41785  97.7816 357.1613 0010670 107.2293 253.0084 14.72072461492932"}}, "geometry": {"type": "Point", "coordinates": [-6.60426784073681, 28.31968911719037]}}, {"type": "Feature", "properties": {"norad_id": 41787, "name": "PATHFINDER 1", "group": "resource", "lat": 55.31339367621373, "lon": -179.94653333178414, "alt_km": 648.1055165447369, "timestamp": "2025-12-11T18:59:45.723750+00:00", "meta": {"OBJECT_NAME": "PATHFINDER 1", "OBJECT_ID": "2016-059E", "EPOCH": "2025-12-11T00:25:59.733408", "MEAN_MOTION": 14.67315928, "ECCENTRICITY": 0.00300541, "INCLINATION": 97.8139, "RA_OF_ASC_NODE": 347.8715, "ARG_OF_PERICENTER": 86.425, "MEAN_ANOMALY": 274.0391, "EPHEMERIS_TYPE": 0, "CLASSIFICATION_TYPE": "U", "NORAD_CAT_ID": 41787, "ELEMENT_SET_NO": 999, "REV_AT_EPOCH": 49211, "BSTAR": 0.00022273289, "MEAN_MOTION_DOT": 1.219e-05, "MEAN_MOTION_DDOT": 0}, "tle": {"line1": "1 41787U 16059E   25345.01805247  .00001219  00000+0  22273-3 0  9995", "line2": "2 41787  97.8139 347.8715 0030054  86.4250 274.0391 14.67315928492117"}}, "geometry": {"type": "Point", "coordinates": [-179.94653333178414, 55.31339367621373]}}, {"type": "Feature", "properties": {"norad_id": 41790, "name": "SCATSAT 1", "group": "resource", "lat": 73.86809703939258, "lon": 12.763893178822052, "alt_km": 602.8233343538386, "timestamp": "2025-12-11T18:59:45.723760+00:00", "meta": {"OBJECT_NAME": "SCATSAT 1", "OBJECT_ID": "2016-059H", "EPOCH": "2025-12-11T04:02:21.459552", "MEAN_MOTION": 14.78927983, "ECCENTRICITY": 0.00562044, "INCLINATION": 98.1464, "RA_OF_ASC_NODE": 41.8188, "ARG_OF_PERICENTER": 132.9642, "MEAN_ANOMALY": 227.6302, "EPHEMERIS_TYPE": 0, "CLASSIFICATION_TYPE": "U", "NORAD_CAT_ID": 41790, "ELEMENT_SET_NO": 999, "REV_AT_EPOCH": 7379, "BSTAR": 0.00034488471, "MEAN_MOTION_DOT": 2.555e-05, "MEAN_MOTION_DDOT": 0}, "tle": {"line1": "1 41790U 16059H   25345.16830393  .00002555  00000+0  34488-3 0  9990", "line2": "2 41790  98.1464  41.8188 0056204 132.9642 227.6302 14.78927983 73795"}}, "geometry": {"type": "Point", "coordinates": [12.763893178822052, 73.86809703939258]}}, {"type": "Feature", "properties": {"norad_id": 41875, "name": "GOKTURK 1A", "group": "resource", "lat": -35.94063596513172, "lon": 52.21152494814818, "alt_km": 691.2086846512129, "timestamp": "2025-12-11T18:59:45.723784+00:00", "meta": {"OBJECT_NAME": "GOKTURK 1A", "OBJECT_ID": "2016-073A", "EPOCH": "2025-12-11T06:31:07.048704", "MEAN_MOTION": 14.62776468, "ECCENTRICITY": 0.00012528, "INCLINATION": 98.1424, "RA_OF_ASC_NODE": 237.6564, "ARG_OF_PERICENTER": 77.8937, "MEAN_ANOMALY": 282.2405, "EPHEMERIS_TYPE": 0, "CLASSIFICATION_TYPE": "U", "NORAD_CAT_ID": 41875, "ELEMENT_SET_NO": 999, "REV_AT_EPOCH": 48135, "BSTAR": 0.00015973996, "MEAN_MOTION_DOT": 7.68e-06, "MEAN_MOTION_DDOT": 0}, "tle": {"line1": "1 41875U 16073A   25345.27160936  .00000768  00000+0  15974-3 0  9994", "line2": "2 41875  98.1424 237.6564 0001252  77.8937 282.2405 14.62776468481354"}}, "geometry": {"type": "Point", "coordinates": [52.21152494814818, -35.94063596513172]}}, {"type": "Feature", "properties": {"norad_id": 41877, "name": "RESOURCESAT-2A", "group": "resource", "lat": 44.73266079600457, "lon": 46.84984984245425, "alt_km": 816.7480378365299, "timestamp": "2025-12-11T18:59:45.723795+00:00", "meta": {"OBJECT_NAME": "RESOURCESAT-2A", "OBJECT_ID": "2016-074A", "EPOCH": "2025-12-11T06:57:31.617792", "MEAN_MOTION": 14.2159783, "ECCENTRICITY": 0.00011182, "INCLINATION": 98.7753, "RA_OF_ASC_NODE": 55.1539, "ARG_OF_PERICENTER": 262.1637, "MEAN_ANOMALY": 97.9414, "EPHEMERIS_TYPE": 0, "CLASSIFICATION_TYPE": "U", "NORAD_CAT_ID": 41877, "ELEMENT_SET_NO": 999, "REV_AT_EPOCH": 46760, "BSTAR": 1.7268641e-05, "MEAN_MOTION_DOT": -7e-08, "MEAN_MOTION_DDOT": 0}, "tle": {"line1": "1 41877U 16074A   25345.28994928 -.00000007  00000+0  17269-4 0  9991", "line2": "2 41877  98.7753  55.1539 0001118 262.1637  97.9414 14.21597830467601"}}, "geometry": {"type": "Point", "coordinates": [46.84984984245425, 44.73266079600457]}}, {"type": "Feature", "properties": {"norad_id": 41948, "name": "CARTOSAT-2D", "group": "resource", "lat": 76.70289017036079, "lon": 9.743108414795474, "alt_km": 500.76060910997967, "timestamp": "2025-12-11T18:59:45.723806+00:00", "meta": {"OBJECT_NAME": "CARTOSAT-2D", "OBJECT_ID": "2017-008A", "EPOCH": "2025-12-11T06:00:13.118976", "MEAN_MOTION": 15.19232417, "ECCENTRICITY": 0.00045011, "INCLINATION": 97.4383, "RA_OF_ASC_NODE": 42.7697, "ARG_OF_PERICENTER": 167.9853, "MEAN_ANOMALY": 192.149, "EPHEMERIS_TYPE": 0, "CLASSIFICATION_TYPE": "U", "NORAD_CAT_ID": 41948, "ELEMENT_SET_NO": 999, "REV_AT_EPOCH": 48904, "BSTAR": 0.00038082329, "MEAN_MOTION_DOT": 7.959e-05, "MEAN_MOTION_DDOT": 0}, "tle": {"line1": "1 41948U 17008A   25345.25015184  .00007959  00000+0  38082-3 0  9990", "line2": "2 41948  97.4383  42.7697 0004501 167.9853 192.1490 15.19232417489042"}}, "geometry": {"type": "Point", "coordinates": [9.743108414795474, 76.70289017036079]}}, {"type": "Feature", "properties": {"norad_id": 42063, "name": "SENTINEL-2B", "group": "resource", "lat": -17.275441570368002, "lon": 60.93858491602443, "alt_km": 794.1616267190839, "timestamp": "2025-12-11T18:59:45.723817+00:00", "meta": {"OBJECT_NAME": "SENTINEL-2B", "OBJECT_ID": "2017-013A", "EPOCH": "2025-12-11T07:19:45.314112", "MEAN_MOTION": 14.30815178, "ECCENTRICITY": 0.00011452, "INCLINATION": 98.5712, "RA_OF_ASC_NODE": 57.771, "ARG_OF_PERICENTER": 93.2785, "MEAN_ANOMALY": 266.8529, "EPHEMERIS_TYPE": 0, "CLASSIFICATION_TYPE": "U", "NORAD_CAT_ID": 42063, "ELEMENT_SET_NO": 999, "REV_AT_EPOCH": 45777, "BSTAR": 0.00010170861, "MEAN_MOTION_DOT": 2.23e-06, "MEAN_MOTION_DDOT": 0}, "tle": {"line1": "1 42063U 17013A   25345.30538558  .00000223  00000+0  10171-3 0  9992", "line2": "2 42063  98.5712  57.7710 0001145  93.2785 266.8529 14.30815178457777"}}, "geometry": {"type": "Point", "coordinates": [60.93858491602443, -17.275441570368002]}}, {"type": "Feature", "properties": {"norad_id": 42767, "name": "CARTOSAT-2E", "group": "resource", "lat": -9.782560621926041, "lon": 44.68441978399589, "alt_km": 512.7839265312223, "timestamp": "2025-12-11T18:59:45.723827+00:00", "meta": {"OBJECT_NAME": "CARTOSAT-2E", "OBJECT_ID": "2017-036C", "EPOCH": "2025-12-11T06:23:38.002848", "MEAN_MOTION": 15.19295465, "ECCENTRICITY": 0.00023796, "INCLINATION": 97.4553, "RA_OF_ASC_NODE": 42.8724, "ARG_OF_PERICENTER": 241.774, "MEAN_ANOMALY": 118.3254, "EPHEMERIS_TYPE": 0, "CLASSIFICATION_TYPE": "U", "NORAD_CAT_ID": 42767, "ELEMENT_SET_NO": 999, "REV_AT_EPOCH": 46961, "BSTAR": 0.00030277827, "MEAN_MOTION_DOT": 6.323e-05, "MEAN_MOTION_DDOT": 0}, "tle": {"line1": "1 42767U 17036C   25345.26641207  .00006323  00000+0  30278-3 0  9996", "line2": "2 42767  97.4553  42.8724 0002379 241.7740 118.3254 15.19295465469611"}}, "geometry": {"type": "Point", "coordinates": [44.68441978399589, -9.782560621926041]}}, {"type": "Feature", "properties": {"norad_id": 42920, "name": "FORMOSAT-5", "group": "resource", "lat": -79.87978379193567, "lon": 114.46031794495592, "alt_km": 723.2097251798332, "timestamp": "2025-12-11T18:59:45.723839+00:00", "meta": {"OBJECT_NAME": "FORMOSAT-5", "OBJECT_ID": "2017-049A", "EPOCH": "2025-12-11T06:08:33.313632", "MEAN_MOTION": 14.51004289, "ECCENTRICITY": 0.00099423, "INCLINATION": 98.2454, "RA_OF_ASC_NODE": 59.6044, "ARG_OF_PERICENTER": 300.592, "MEAN_ANOMALY": 59.4293, "EPHEMERIS_TYPE": 0, "CLASSIFICATION_TYPE": "U", "NORAD_CAT_ID": 42920, "ELEMENT_SET_NO": 999, "REV_AT_EPOCH": 43942, "BSTAR": 0.00012087276, "MEAN_MOTION_DOT": 4.34e-06, "MEAN_MOTION_DDOT": 0}, "tle": {"line1": "1 42920U 17049A   25345.25594113  .00000434  00000+0  12087-3 0  9998", "line2": "2 42920  98.2454  59.6044 0009942 300.5920  59.4293 14.51004289439420"}}, "geometry": {"type": "Point", "coordinates": [114.46031794495592, -79.87978379193567]}}]}